COMMENT,ORIGINATOR,NORAD_CAT_ID,OBJECT_NAME,OBJECT_TYPE,CLASSIFICATION_TYPE,INTLDES,EPOCH,EPOCH_MICROSECONDS,MEAN_MOTION,ECCENTRICITY,INCLINATION,RA_OF_ASC_NODE,ARG_OF_PERICENTER,MEAN_ANOMALY,EPHEMERIS_TYPE,ELEMENT_SET_NO,REV_AT_EPOCH,BSTAR,MEAN_MOTION_DOT,MEAN_MOTION_DDOT,FILE,TLE_LINE0,TLE_LINE1,TLE_LINE2,OBJECT_ID,OBJECT_NUMBER,SEMIMAJOR_AXIS,PERIOD,APOGEE,PERIGEE,DECAYED,date
GENERATED VIA SPACETRACK.ORG API,18 SPCS,52183,SPACEBEE-133,PAYLOAD,U,22033AC,2023/1/24 19:03,73344,15.31071826,0.0007649,97.3631,108.1999,322.5591,37.5116,0,999,4541,0.0013139,0.00039557,0,3760203,0 SPACEBEE-133,1 52183U 22033AC  23024.79392446  .00039557  00000-0  13139-2 0  9992,2 52183  97.3631 108.1999 0007649 322.5591  37.5116 15.31071826 45411,2022-033AC,52183,6850.75,94.052,477.855,467.375,1,2023/2/16
GENERATED VIA SPACETRACK.ORG API,18 SPCS,52183,SPACEBEE-133,PAYLOAD,U,22033AC,2023/1/25 4:27,227168,15.31100946,0.0007654,97.3628,108.589,321.053,39.0159,0,999,4548,0.001243,0.00037442,0,3761297,0 SPACEBEE-133,1 52183U 22033AC  23025.18605587  .00037442  00000-0  12430-2 0  9993,2 52183  97.3628 108.5890 0007654 321.0530  39.0159 15.31100946 45481,2022-033AC,52183,6850.663,94.05,477.772,467.285,1,2023/2/17
GENERATED VIA SPACETRACK.ORG API,18 SPCS,52183,SPACEBEE-133,PAYLOAD,U,22033AC,2023/1/25 17:00,822112,15.31138832,0.0007628,97.3627,109.108,319.1604,40.9065,0,999,4556,0.0012113,0.00036523,0,3761360,0 SPACEBEE-133,1 52183U 22033AC  23025.70888683  .00036523  00000-0  12113-2 0  9998,2 52183  97.3627 109.1080 0007628 319.1604  40.9065 15.31138832 45560,2022-033AC,52183,6850.55,94.048,477.641,467.19,1,2023/2/18
GENERATED VIA SPACETRACK.ORG API,18 SPCS,52183,SPACEBEE-133,PAYLOAD,U,22033AC,2023/1/26 3:59,816256,15.31177553,0.0007661,97.3631,109.5632,317.4977,42.5671,0,999,4562,0.0013677,0.00041325,0,3761722,0 SPACEBEE-133,1 52183U 22033AC  23026.16635204  .00041325  00000-0  13677-2 0  9990,2 52183  97.3631 109.5632 0007661 317.4977  42.5671 15.31177553 45624,2022-033AC,52183,6850.435,94.045,477.548,467.052,1,2023/2/19
GENERATED VIA SPACETRACK.ORG API,18 SPCS,52183,SPACEBEE-133,PAYLOAD,U,22033AC,2023/1/26 3:59,816256,15.31177553,0.0007661,97.3631,109.5632,317.4977,42.5671,0,999,4563,0.0013677,0.00041325,0,3761951,0 SPACEBEE-133,1 52183U 22033AC  23026.16635204  .00041325  00000-0  13677-2 0  9990,2 52183  97.3631 109.5632 0007661 317.4977  42.5671 15.31177553 45635,2022-033AC,52183,6850.435,94.045,477.548,467.052,1,2023/2/20
GENERATED VIA SPACETRACK.ORG API,18 SPCS,52183,SPACEBEE-133,PAYLOAD,U,22033AC,2023/1/27 3:31,291840,15.31247205,0.0007631,97.3631,110.5363,314.1514,45.9099,0,999,4577,0.001172,0.0003545,0,3762604,0 SPACEBEE-133,1 52183U 22033AC  23027.14660060  .00035450  00000-0  11720-2 0  9996,2 52183  97.3631 110.5363 0007631 314.1514  45.9099 15.31247205 45774,2022-033AC,52183,6850.227,94.041,477.319,466.865,1,2023/2/21
GENERATED VIA SPACETRACK.ORG API,18 SPCS,52183,SPACEBEE-133,PAYLOAD,U,22033AC,2023/1/27 3:31,291840,15.31247205,0.0007631,97.3631,110.5363,314.1514,45.9099,0,999,4578,0.001172,0.0003545,0,3762956,0 SPACEBEE-133,1 52183U 22033AC  23027.14660060  .00035450  00000-0  11720-2 0  9996,2 52183  97.3631 110.5363 0007631 314.1514  45.9099 15.31247205 45785,2022-033AC,52183,6850.227,94.041,477.319,466.865,1,2023/2/22
GENERATED VIA SPACETRACK.ORG API,18 SPCS,52183,SPACEBEE-133,PAYLOAD,U,22033AC,2023/1/27 17:38,507840,15.31288167,0.0007612,97.363,111.1204,311.6402,48.4186,0,999,4587,0.0010844,0.00032825,0,3763218,0 SPACEBEE-133,1 52183U 22033AC  23027.73472810  .00032825  00000-0  10844-2 0  9994,2 52183  97.3630 111.1204 0007612 311.6402  48.4186 15.31288167 45879,2022-033AC,52183,6850.105,94.038,477.184,466.756,1,2023/2/23
GENERATED VIA SPACETRACK.ORG API,18 SPCS,52183,SPACEBEE-133,PAYLOAD,U,22033AC,2023/1/28 4:36,800608,15.3131845,0.0007631,97.3629,111.5747,309.7715,50.2854,0,999,4593,0.0011231,0.00034036,0,3763554,0 SPACEBEE-133,1 52183U 22033AC  23028.19215047  .00034036  00000-0  11231-2 0  9999,2 52183  97.3629 111.5747 0007631 309.7715  50.2854 15.31318450 45938,2022-033AC,52183,6850.015,94.037,477.107,466.652,1,2023/2/24
GENERATED VIA SPACETRACK.ORG API,18 SPCS,52183,SPACEBEE-133,PAYLOAD,U,22033AC,2023/1/28 4:36,800608,15.3131845,0.0007631,97.3629,111.5747,309.7715,50.2854,0,999,4594,0.0011231,0.00034036,0,3763924,0 SPACEBEE-133,1 52183U 22033AC  23028.19215047  .00034036  00000-0  11231-2 0  9999,2 52183  97.3629 111.5747 0007631 309.7715  50.2854 15.31318450 45949,2022-033AC,52183,6850.015,94.037,477.107,466.652,1,2023/2/25
GENERATED VIA SPACETRACK.ORG API,18 SPCS,52183,SPACEBEE-133,PAYLOAD,U,22033AC,2023/1/28 17:09,67616,15.31349611,0.0007635,97.3627,112.0937,307.7922,52.2628,0,999,4602,0.00098101,0.00029733,0,3764201,0 SPACEBEE-133,1 52183U 22033AC  23028.71490819  .00029733  00000-0  98101-3 0  9999,2 52183  97.3627 112.0937 0007635 307.7922  52.2628 15.31349611 46020,2022-033AC,52183,6849.922,94.035,477.017,466.557,1,2023/2/26
GENERATED VIA SPACETRACK.ORG API,18 SPCS,52183,SPACEBEE-133,PAYLOAD,U,22033AC,2023/1/29 18:14,769440,15.31411447,0.0007555,97.363,113.1322,304.005,56.0473,0,999,4617,0.00088934,0.00026989,0,3764957,0 SPACEBEE-133,1 52183U 22033AC  23029.76039085  .00026989  00000-0  88934-3 0  9992,2 52183  97.3630 113.1322 0007555 304.0050  56.0473 15.31411447 46170,2022-033AC,52183,6849.737,94.031,476.777,466.427,1,2023/2/27
GENERATED VIA SPACETRACK.ORG API,18 SPCS,52183,SPACEBEE-133,PAYLOAD,U,22033AC,2023/1/29 18:14,769440,15.31411447,0.0007555,97.363,113.1322,304.005,56.0473,0,999,4618,0.00088934,0.00026989,0,3765015,0 SPACEBEE-133,1 52183U 22033AC  23029.76039085  .00026989  00000-0  88934-3 0  9992,2 52183  97.3630 113.1322 0007555 304.0050  56.0473 15.31411447 46181,2022-033AC,52183,6849.737,94.031,476.777,466.427,1,2023/2/28
GENERATED VIA SPACETRACK.ORG API,18 SPCS,52183,SPACEBEE-133,PAYLOAD,U,22033AC,2023/1/30 5:13,921568,15.3143561,0.0007409,97.363,113.5874,301.1584,58.893,0,999,4625,0.00085748,0.00026035,0,3765576,0 SPACEBEE-133,1 52183U 22033AC  23030.21777687  .00026035  00000-0  85748-3 0  9993,2 52183  97.3630 113.5874 0007409 301.1584  58.8930 15.31435610 46259,2022-033AC,52183,6849.665,94.029,476.605,466.455,1,2023/3/1
GENERATED VIA SPACETRACK.ORG API,18 SPCS,52183,SPACEBEE-133,PAYLOAD,U,22033AC,2023/1/31 3:10,433024,15.31483476,0.00074,97.3631,114.4961,297.7476,62.3014,0,999,4638,0.0009006,0.00027393,0,3766171,0 SPACEBEE-133,1 52183U 22033AC  23031.13252816  .00027393  00000-0  90060-3 0  9998,2 52183  97.3631 114.4961 0007400 297.7476  62.3014 15.31483476 46388,2022-033AC,52183,6849.523,94.026,476.456,466.319,1,2023/3/2
GENERATED VIA SPACETRACK.ORG API,18 SPCS,52183,SPACEBEE-133,PAYLOAD,U,22033AC,2023/1/31 11:01,455936,15.31500007,0.0007377,97.363,114.8204,296.2845,63.7638,0,999,4644,0.00089729,0.00027306,0,3766475,0 SPACEBEE-133,1 52183U 22033AC  23031.45921824  .00027306  00000-0  89729-3 0  9999,2 52183  97.3630 114.8204 0007377 296.2845  63.7638 15.31500007 46442,2022-033AC,52183,6849.473,94.025,476.391,466.285,1,2023/3/3
GENERATED VIA SPACETRACK.ORG API,18 SPCS,52183,SPACEBEE-133,PAYLOAD,U,22033AC,2023/2/1 4:16,384768,15.3154625,0.0007367,97.3632,115.5342,294.1006,65.9464,0,999,4654,0.00099181,0.00030245,0,3767138,0 SPACEBEE-133,1 52183U 22033AC  23032.17792112  .00030245  00000-0  99181-3 0  9994,2 52183  97.3632 115.5342 0007367 294.1006  65.9464 15.31546250 46542,2022-033AC,52183,6849.335,94.023,476.246,466.154,1,2023/3/4
GENERATED VIA SPACETRACK.ORG API,18 SPCS,52183,SPACEBEE-133,PAYLOAD,U,22033AC,2023/2/1 4:16,384768,15.3154625,0.0007367,97.3632,115.5342,294.1006,65.9464,0,999,4655,0.00099181,0.00030245,0,3767525,0 SPACEBEE-133,1 52183U 22033AC  23032.17792112  .00030245  00000-0  99181-3 0  9994,2 52183  97.3632 115.5342 0007367 294.1006  65.9464 15.31546250 46553,2022-033AC,52183,6849.335,94.023,476.246,466.154,1,2023/3/5
GENERATED VIA SPACETRACK.ORG API,18 SPCS,52183,SPACEBEE-133,PAYLOAD,U,22033AC,2023/2/2 5:21,498624,15.31614829,0.0007272,97.3632,116.5726,290.3038,69.7421,0,999,4671,0.0011479,0.00035114,0,3768366,0 SPACEBEE-133,1 52183U 22033AC  23033.22326966  .00035114  00000-0  11479-2 0  9994,2 52183  97.3632 116.5726 0007272 290.3038  69.7421 15.31614829 46719,2022-033AC,52183,6849.131,94.018,475.977,466.015,1,2023/3/6
GENERATED VIA SPACETRACK.ORG API,18 SPCS,52183,SPACEBEE-133,PAYLOAD,U,22033AC,2023/2/2 19:28,731808,15.3164629,0.0007267,97.363,117.1562,288.1696,71.8754,0,999,4679,0.00087539,0.00026756,0,3769149,0 SPACEBEE-133,1 52183U 22033AC  23033.81125847  .00026756  00000-0  87539-3 0  9997,2 52183  97.3630 117.1562 0007267 288.1696  71.8754 15.31646290 46799,2022-033AC,52183,6849.037,94.016,475.879,465.925,1,2023/3/7
GENERATED VIA SPACETRACK.ORG API,18 SPCS,52183,SPACEBEE-133,PAYLOAD,U,22033AC,2023/2/3 11:08,248384,15.31688057,0.0007319,97.363,117.8055,285.3318,74.7114,0,999,4690,0.00098871,0.00030284,0,3770323,0 SPACEBEE-133,1 52183U 22033AC  23034.46456306  .00030284  00000-0  98871-3 0  9998,2 52183  97.3630 117.8055 0007319 285.3318  74.7114 15.31688057 46903,2022-033AC,52183,6848.913,94.014,475.79,465.765,1,2023/3/8
GENERATED VIA SPACETRACK.ORG API,18 SPCS,52183,SPACEBEE-133,PAYLOAD,U,22033AC,2023/2/3 15:51,630592,15.31699329,0.0007374,97.3631,118.0004,284.8884,75.1541,0,999,4693,0.00093406,0.0002861,0,3770748,0 SPACEBEE-133,1 52183U 22033AC  23034.66055128  .00028610  00000-0  93406-3 0  9996,2 52183  97.3631 118.0004 0007374 284.8884  75.1541 15.31699329 46930,2022-033AC,52183,6848.879,94.013,475.794,465.694,1,2023/3/9
GENERATED VIA SPACETRACK.ORG API,18 SPCS,52183,SPACEBEE-133,PAYLOAD,U,22033AC,2023/2/4 4:23,537728,15.31737948,0.0007427,97.3631,118.5198,282.8293,77.2118,0,999,4700,0.0011386,0.00034963,0,3771401,0 SPACEBEE-133,1 52183U 22033AC  23035.18317752  .00034963  00000-0  11386-2 0  9992,2 52183  97.3631 118.5198 0007427 282.8293  77.2118 15.31737948 47002,2022-033AC,52183,6848.764,94.011,475.715,465.542,1,2023/3/10
